start=new Date('2023-04-03T00:00:00.000Z').valueOf();
sats=[{"SITE":"AFETR","MEAN_MOTION_DOT":"0.00036843","MEAN_MOTION_DDOT":"0.0000000000000","MEAN_MOTION":"15.06390114","MEAN_ELEMENT_THEORY":"SGP4","REF_FRAME":"TEME","CENTER_NAME":"EARTH","INCLINATION":"53.0517","RA_OF_ASC_NODE":"228.7200","CLASSIFICATION_TYPE":"U","PERIAPSIS":"546.411","APOAPSIS":"548.076","EPOCH":"2023-04-02T18:03:53.807904","GP_ID":"229349189","COUNTRY_CODE":"US","ARG_OF_PERICENTER":"80.6833","FILE":"3878419","TLE_LINE1":"1 46068U 20055AT  23092.75270611  .00036843  00000-0  24801-2 0  9992","ECCENTRICITY":"0.00012020","TLE_LINE2":"2 46068  53.0517 228.7200 0001202  80.6833 279.4292 15.06390114147749","OBJECT_ID":"2020-055AT","REV_AT_EPOCH":"14774","EPHEMERIS_TYPE":"0","DECAY_DATE":null,"OBJECT_TYPE":"PAYLOAD","ELEMENT_SET_NO":"999","BSTAR":"0.00248010000000","MEAN_ANOMALY":"279.4292","TIME_SYSTEM":"UTC","NORAD_CAT_ID":"46068","LAUNCH_DATE":"2020-08-07","SEMIMAJOR_AXIS":"6925.379","PERIOD":"95.593","RCS_SIZE":"LARGE","OBJECT_NAME":"STARLINK-1532"},{"FILE":"3878419","ARG_OF_PERICENTER":"69.9517","COUNTRY_CODE":"US","GP_ID":"229348461","EPOCH":"2023-04-02T18:26:29.534496","APOAPSIS":"548.133","PERIAPSIS":"546.454","RA_OF_ASC_NODE":"228.6600","CLASSIFICATION_TYPE":"U","INCLINATION":"53.0514","CENTER_NAME":"EARTH","REF_FRAME":"TEME","MEAN_ELEMENT_THEORY":"SGP4","MEAN_MOTION_DOT":"0.00034587","MEAN_MOTION_DDOT":"0.0000000000000","MEAN_MOTION":"15.06373825","SITE":"AFETR","OBJECT_NAME":"STARLINK-1533","RCS_SIZE":"LARGE","SEMIMAJOR_AXIS":"6925.429","PERIOD":"95.594","LAUNCH_DATE":"2020-08-07","TIME_SYSTEM":"UTC","NORAD_CAT_ID":"46069","MEAN_ANOMALY":"290.1603","BSTAR":"0.00233110000000","ELEMENT_SET_NO":"999","OBJECT_TYPE":"PAYLOAD","DECAY_DATE":null,"EPHEMERIS_TYPE":"0","REV_AT_EPOCH":"14775","OBJECT_ID":"2020-055AU","ECCENTRICITY":"0.00012120","TLE_LINE2":"2 46069  53.0514 228.6600 0001212  69.9517 290.1603 15.06373825147757","TLE_LINE1":"1 46069U 20055AU  23092.76839739  .00034587  00000-0  23311-2 0  9994"},{"OBJECT_ID":"2020-055AV","EPHEMERIS_TYPE":"0","REV_AT_EPOCH":"14775","TLE_LINE1":"1 46070U 20055AV  23092.78314276  .00033638  00000-0  22667-2 0  9991","ECCENTRICITY":"0.00013920","TLE_LINE2":"2 46070  53.0518 228.5949 0001392  64.5586 295.5547 15.06394742147751","ELEMENT_SET_NO":"999","BSTAR":"0.00226670000000","DECAY_DATE":null,"OBJECT_TYPE":"PAYLOAD","LAUNCH_DATE":"2020-08-07","MEAN_ANOMALY":"295.5547","TIME_SYSTEM":"UTC","NORAD_CAT_ID":"46070","OBJECT_NAME":"STARLINK-1536","RCS_SIZE":"LARGE","SEMIMAJOR_AXIS":"6925.365","PERIOD":"95.592","MEAN_MOTION_DDOT":"0.0000000000000","MEAN_MOTION_DOT":"0.00033638","MEAN_MOTION":"15.06394742","MEAN_ELEMENT_THEORY":"SGP4","SITE":"AFETR","INCLINATION":"53.0518","REF_FRAME":"TEME","CENTER_NAME":"EARTH","PERIAPSIS":"546.266","APOAPSIS":"548.194","EPOCH":"2023-04-02T18:47:43.534464","RA_OF_ASC_NODE":"228.5949","CLASSIFICATION_TYPE":"U","ARG_OF_PERICENTER":"64.5586","FILE":"3878419","GP_ID":"229348711","COUNTRY_CODE":"US"},{"INCLINATION":"53.0519","CENTER_NAME":"EARTH","REF_FRAME":"TEME","MEAN_ELEMENT_THEORY":"SGP4","MEAN_MOTION":"15.06356816","MEAN_MOTION_DOT":"0.00025979","MEAN_MOTION_DDOT":"0.0000000000000","SITE":"AFETR","FILE":"3878419","ARG_OF_PERICENTER":"83.6451","COUNTRY_CODE":"US","GP_ID":"229348961","EPOCH":"2023-04-02T16:03:09.677664","APOAPSIS":"548.174","PERIAPSIS":"546.518","CLASSIFICATION_TYPE":"U","RA_OF_ASC_NODE":"229.1061","BSTAR":"0.00175860000000","ELEMENT_SET_NO":"999","DECAY_DATE":null,"OBJECT_TYPE":"PAYLOAD","REV_AT_EPOCH":"14773","EPHEMERIS_TYPE":"0","OBJECT_ID":"2020-055AW","TLE_LINE2":"2 46071  53.0519 229.1061 0001196  83.6451 276.4674 15.06356816147737","ECCENTRICITY":"0.00011960","TLE_LINE1":"1 46071U 20055AW  23092.66886201  .00025979  00000-0  17586-2 0  9994","OBJECT_NAME":"STARLINK-1538","RCS_SIZE":"LARGE","SEMIMAJOR_AXIS":"6925.481","PERIOD":"95.595","LAUNCH_DATE":"2020-08-07","NORAD_CAT_ID":"46071","TIME_SYSTEM":"UTC","MEAN_ANOMALY":"276.4674"},{"LAUNCH_DATE":"2020-08-07","MEAN_ANOMALY":"271.8026","TIME_SYSTEM":"UTC","NORAD_CAT_ID":"46072","OBJECT_NAME":"STARLINK-1539","RCS_SIZE":"LARGE","SEMIMAJOR_AXIS":"6925.389","PERIOD":"95.593","OBJECT_ID":"2020-055AX","EPHEMERIS_TYPE":"0","REV_AT_EPOCH":"14773","TLE_LINE1":"1 46072U 20055AX  23092.76009300  .00034006  00000-0  22917-2 0  9998","ECCENTRICITY":"0.00012160","TLE_LINE2":"2 46072  53.0523 228.6962 0001216  88.3102 271.8026 15.06386813147735","ELEMENT_SET_NO":"999","BSTAR":"0.00229170000000","OBJECT_TYPE":"PAYLOAD","DECAY_DATE":null,"PERIAPSIS":"546.412","APOAPSIS":"548.096","EPOCH":"2023-04-02T18:14:32.035200","RA_OF_ASC_NODE":"228.6962","CLASSIFICATION_TYPE":"U","ARG_OF_PERICENTER":"88.3102","FILE":"3878419","GP_ID":"229349690","COUNTRY_CODE":"US","MEAN_MOTION_DDOT":"0.0000000000000","MEAN_MOTION_DOT":"0.00034006","MEAN_MOTION":"15.06386813","MEAN_ELEMENT_THEORY":"SGP4","SITE":"AFETR","INCLINATION":"53.0523","REF_FRAME":"TEME","CENTER_NAME":"EARTH"},{"SEMIMAJOR_AXIS":"6925.376","PERIOD":"95.593","RCS_SIZE":"LARGE","OBJECT_NAME":"STARLINK-1542","MEAN_ANOMALY":"280.1379","TIME_SYSTEM":"UTC","NORAD_CAT_ID":"46073","LAUNCH_DATE":"2020-08-07","DECAY_DATE":null,"OBJECT_TYPE":"PAYLOAD","ELEMENT_SET_NO":"999","BSTAR":"0.00237870000000","TLE_LINE1":"1 46073U 20055AY  23092.77577740  .00035319  00000-0  23787-2 0  9992","ECCENTRICITY":"0.00013080","TLE_LINE2":"2 46073  53.0541 228.6262 0001308  79.9757 280.1379 15.06391041147747","OBJECT_ID":"2020-055AY","EPHEMERIS_TYPE":"0","REV_AT_EPOCH":"14774","GP_ID":"229347961","COUNTRY_CODE":"US","ARG_OF_PERICENTER":"79.9757","FILE":"3878419","RA_OF_ASC_NODE":"228.6262","CLASSIFICATION_TYPE":"U","PERIAPSIS":"546.335","APOAPSIS":"548.147","EPOCH":"2023-04-02T18:37:07.167360","REF_FRAME":"TEME","CENTER_NAME":"EARTH","INCLINATION":"53.0541","SITE":"AFETR","MEAN_MOTION_DDOT":"0.0000000000000","MEAN_MOTION_DOT":"0.00035319","MEAN_MOTION":"15.06391041","MEAN_ELEMENT_THEORY":"SGP4"},{"RCS_SIZE":"LARGE","OBJECT_NAME":"STARLINK-1549","PERIOD":"95.595","SEMIMAJOR_AXIS":"6925.473","LAUNCH_DATE":"2020-08-07","MEAN_ANOMALY":"281.3649","TIME_SYSTEM":"UTC","NORAD_CAT_ID":"46074","ELEMENT_SET_NO":"999","BSTAR":"0.00200010000000","OBJECT_TYPE":"PAYLOAD","DECAY_DATE":null,"OBJECT_ID":"2020-055AZ","REV_AT_EPOCH":"14773","EPHEMERIS_TYPE":"0","TLE_LINE1":"1 46074U 20055AZ  23092.76102256  .00029603  00000-0  20001-2 0  9993","ECCENTRICITY":"0.00013090","TLE_LINE2":"2 46074  53.0526 228.6930 0001309  78.7487 281.3649 15.06359237147734","ARG_OF_PERICENTER":"78.7487","FILE":"3878419","GP_ID":"229348211","COUNTRY_CODE":"US","PERIAPSIS":"546.432","APOAPSIS":"548.245","EPOCH":"2023-04-02T18:15:52.349184","RA_OF_ASC_NODE":"228.6930","CLASSIFICATION_TYPE":"U","INCLINATION":"53.0526","REF_FRAME":"TEME","CENTER_NAME":"EARTH","MEAN_MOTION_DOT":"0.00029603","MEAN_MOTION_DDOT":"0.0000000000000","MEAN_MOTION":"15.06359237","MEAN_ELEMENT_THEORY":"SGP4","SITE":"AFETR"},{"RCS_SIZE":"LARGE","OBJECT_NAME":"STARLINK-1551","SEMIMAJOR_AXIS":"6925.436","PERIOD":"95.594","LAUNCH_DATE":"2020-08-07","MEAN_ANOMALY":"285.2337","NORAD_CAT_ID":"46075","TIME_SYSTEM":"UTC","ELEMENT_SET_NO":"999","BSTAR":"0.00193970000000","OBJECT_TYPE":"PAYLOAD","DECAY_DATE":null,"OBJECT_ID":"2020-055BA","REV_AT_EPOCH":"14772","EPHEMERIS_TYPE":"0","TLE_LINE1":"1 46075U 20055BA  23092.65410813  .00028706  00000-0  19397-2 0  9992","TLE_LINE2":"2 46075  53.0522 229.1739 0001530  74.8821 285.2337 15.06371517147720","ECCENTRICITY":"0.00015300","ARG_OF_PERICENTER":"74.8821","FILE":"3878419","GP_ID":"229349462","COUNTRY_CODE":"US","PERIAPSIS":"546.241","EPOCH":"2023-04-02T15:41:54.942432","APOAPSIS":"548.360","CLASSIFICATION_TYPE":"U","RA_OF_ASC_NODE":"229.1739","INCLINATION":"53.0522","REF_FRAME":"TEME","CENTER_NAME":"EARTH","MEAN_MOTION":"15.06371517","MEAN_MOTION_DDOT":"0.0000000000000","MEAN_MOTION_DOT":"0.00028706","MEAN_ELEMENT_THEORY":"SGP4","SITE":"AFETR"},{"PERIOD":"95.593","SEMIMAJOR_AXIS":"6925.388","OBJECT_NAME":"STARLINK-1552","RCS_SIZE":"LARGE","MEAN_ANOMALY":"272.2095","NORAD_CAT_ID":"46076","TIME_SYSTEM":"UTC","LAUNCH_DATE":"2020-08-07","DECAY_DATE":null,"OBJECT_TYPE":"PAYLOAD","ELEMENT_SET_NO":"999","BSTAR":"0.00178660000000","TLE_LINE1":"1 46076U 20055BB  23092.74628697  .00026421  00000-0  17866-2 0  9995","TLE_LINE2":"2 46076  53.0540 228.7575 0001405  87.9054 272.2095 15.06387071147727","ECCENTRICITY":"0.00014050","OBJECT_ID":"2020-055BB","REV_AT_EPOCH":"14772","EPHEMERIS_TYPE":"0","GP_ID":"229349190","COUNTRY_CODE":"US","ARG_OF_PERICENTER":"87.9054","FILE":"3878419","CLASSIFICATION_TYPE":"U","RA_OF_ASC_NODE":"228.7575","PERIAPSIS":"546.280","APOAPSIS":"548.226","EPOCH":"2023-04-02T17:54:39.194208","REF_FRAME":"TEME","CENTER_NAME":"EARTH","INCLINATION":"53.0540","SITE":"AFETR","MEAN_MOTION":"15.06387071","MEAN_MOTION_DOT":"0.00026421","MEAN_MOTION_DDOT":"0.0000000000000","MEAN_ELEMENT_THEORY":"SGP4"},{"NORAD_CAT_ID":"46077","TIME_SYSTEM":"UTC","MEAN_ANOMALY":"293.9514","LAUNCH_DATE":"2020-08-07","PERIOD":"95.594","SEMIMAJOR_AXIS":"6925.429","RCS_SIZE":"LARGE","OBJECT_NAME":"STARLINK-1559","TLE_LINE2":"2 46077  53.0520 229.4379 0001170  66.1598 293.9514 15.06373662147678","ECCENTRICITY":"0.00011700","TLE_LINE1":"1 46077U 20055BC  23092.59515508  .00017154  00000-0  11685-2 0  9991","REV_AT_EPOCH":"14767","EPHEMERIS_TYPE":"0","OBJECT_ID":"2020-055BC","DECAY_DATE":null,"OBJECT_TYPE":"PAYLOAD","BSTAR":"0.00116850000000","ELEMENT_SET_NO":"999","CLASSIFICATION_TYPE":"U","RA_OF_ASC_NODE":"229.4379","EPOCH":"2023-04-02T14:17:01.398912","APOAPSIS":"548.105","PERIAPSIS":"546.484","COUNTRY_CODE":"US","GP_ID":"229314975","FILE":"3878126","ARG_OF_PERICENTER":"66.1598","SITE":"AFETR","MEAN_ELEMENT_THEORY":"SGP4","MEAN_MOTION":"15.06373662","MEAN_MOTION_DOT":"0.00017154","MEAN_MOTION_DDOT":"0.0000000000000","CENTER_NAME":"EARTH","REF_FRAME":"TEME","INCLINATION":"53.0520"}];
